[Satellite]
VERSION=1.1
NAME=MOLNIYA 2-9
NICKNAME=MOLNIYA 2-9
TLE1=1 07276U 74026A   17185.32011859  .00000152  00000-0  64483-3 0  9998
TLE2=2 07276  62.7804 168.5603 6851378 287.7493  12.4915  2.45097937205014
